{"version": 0.6, "generator": "Overpass API 0.7.62.1 084b4234", "osm3s": {"timestamp_osm_base": "2024-06-07T14:20:13Z", "copyright": "The data included in this document is from www.openstreetmap.org. The data is made available under ODbL."}, "elements": [{"type": "node", "id": 5478982492, "lat": 54.7356199, "lon": 9.0505114}, {"type": "node", "id": 5478982493, "lat": 54.7355069, "lon": 9.0504435}, {"type": "node", "id": 5478982494, "lat": 54.7354573, "lon": 9.0506908}, {"type": "node", "id": 5478982495, "lat": 54.7355703, "lon": 9.0507588}, {"type": "node", "id": 5478982496, "lat": 54.7350427, "lon": 9.0500874}, {"type": "node", "id": 5478982497, "lat": 54.7350444, "lon": 9.0504119}, {"type": "node", "id": 5478982498, "lat": 54.7349595, "lon": 9.0504132}, {"type": "node", "id": 5478982499, "lat": 54.7349594, "lon": 9.0503825}, {"type": "node", "id": 5478982500, "lat": 54.7349217, "lon": 9.0503831}, {"type": "node", "id": 5478982501, "lat": 54.7349212, "lon": 9.0502911}, {"type": "node", "id": 5478982502, "lat": 54.7349567, "lon": 9.0502906}, {"type": "node", "id": 5478982503, "lat": 54.7349556, "lon": 9.0500887}, {"type": "node", "id": 5478982504, "lat": 54.7356151, "lon": 9.0500163}, {"type": "node", "id": 5478982505, "lat": 54.7355374, "lon": 9.0499739}, {"type": "node", "id": 5478982506, "lat": 54.7354925, "lon": 9.0502211}, {"type": "node", "id": 5478982507, "lat": 54.7355702, "lon": 9.0502635}, {"type": "node", "id": 5478982508, "lat": 54.7356969, "lon": 9.0493368}, {"type": "node", "id": 5478982509, "lat": 54.7356665, "lon": 9.0495128}, {"type": "node", "id": 5478982510, "lat": 54.7354862, "lon": 9.0494192}, {"type": "node", "id": 5478982511, "lat": 54.7355166, "lon": 9.0492432}, {"type": "node", "id": 5478982512, "lat": 54.7348175, "lon": 9.0500601}, {"type": "node", "id": 5478982513, "lat": 54.7347948, "lon": 9.0503997}, {"type": "node", "id": 5478982514, "lat": 54.7346608, "lon": 9.0503728}, {"type": "node", "id": 5478982515, "lat": 54.7346775, "lon": 9.0501234}, {"type": "node", "id": 5478982516, "lat": 54.7347352, "lon": 9.050135}, {"type": "node", "id": 5478982517, "lat": 54.7347412, "lon": 9.0500447}, {"type": "node", "id": 5478982518, "lat": 54.7348439, "lon": 9.0506532}, {"type": "node", "id": 5478982519, "lat": 54.7347307, "lon": 9.0506533}, {"type": "node", "id": 5478982520, "lat": 54.7347303, "lon": 9.0508111}, {"type": "node", "id": 5478985821, "lat": 54.7348448, "lon": 9.0508106}, {"type": "node", "id": 5478985822, "lat": 54.7348996, "lon": 9.0510539}, {"type": "node", "id": 5478985823, "lat": 54.7349636, "lon": 9.0512169}, {"type": "node", "id": 5478985824, "lat": 54.7348549, "lon": 9.0513448}, {"type": "node", "id": 5478985825, "lat": 54.7347909, "lon": 9.0511818}, {"type": "node", "id": 5478985826, "lat": 54.7347507, "lon": 9.0512178}, {"type": "node", "id": 5478985827, "lat": 54.7348147, "lon": 9.0513826}, {"type": "node", "id": 5478985828, "lat": 54.7347111, "lon": 9.0515035}, {"type": "node", "id": 5478985829, "lat": 54.734647, "lon": 9.0513386}, {"type": "node", "id": 5479042724, "lat": 54.7342677, "lon": 9.0504155}, {"type": "node", "id": 5479042725, "lat": 54.7342622, "lon": 9.050606}, {"type": "node", "id": 5479042726, "lat": 54.7341701, "lon": 9.0505981}, {"type": "node", "id": 5479042727, "lat": 54.7341756, "lon": 9.0504076}, {"type": "node", "id": 5479042728, "lat": 54.7343292, "lon": 9.0509121}, {"type": "node", "id": 5479042729, "lat": 54.7342262, "lon": 9.0509084}, {"type": "node", "id": 5479042730, "lat": 54.7342237, "lon": 9.0511217}, {"type": "node", "id": 5479042731, "lat": 54.7343267, "lon": 9.0511254}, {"type": "node", "id": 5479042732, "lat": 54.7342511, "lon": 9.0512403}, {"type": "node", "id": 5479042733, "lat": 54.7342484, "lon": 9.0514054}, {"type": "node", "id": 5479042734, "lat": 54.7341539, "lon": 9.0514007}, {"type": "node", "id": 5479042735, "lat": 54.7341567, "lon": 9.0512357}, {"type": "node", "id": 5479042736, "lat": 54.7341485, "lon": 9.051556}, {"type": "node", "id": 5479042737, "lat": 54.7341336, "lon": 9.0517223}, {"type": "node", "id": 5479042738, "lat": 54.73403, "lon": 9.0516945}, {"type": "node", "id": 5479042739, "lat": 54.7340449, "lon": 9.0515282}, {"type": "node", "id": 5479042740, "lat": 54.7344597, "lon": 9.0492942}, {"type": "node", "id": 5479042741, "lat": 54.7344627, "lon": 9.0494513}, {"type": "node", "id": 5479042742, "lat": 54.7344014, "lon": 9.0494549}, {"type": "node", "id": 5479042743, "lat": 54.7344036, "lon": 9.049566}, {"type": "node", "id": 5479042744, "lat": 54.7343231, "lon": 9.0495707}, {"type": "node", "id": 5479042745, "lat": 54.7343179, "lon": 9.0493025}, {"type": "node", "id": 5479042746, "lat": 54.7341943, "lon": 9.0490759}, {"type": "node", "id": 5479042747, "lat": 54.7340838, "lon": 9.0490504}, {"type": "node", "id": 5479042748, "lat": 54.7340633, "lon": 9.0493168}, {"type": "node", "id": 5479042749, "lat": 54.7341738, "lon": 9.0493423}, {"type": "node", "id": 5479042754, "lat": 54.7349078, "lon": 9.0495062}, {"type": "node", "id": 5479042755, "lat": 54.7348045, "lon": 9.0495133}, {"type": "node", "id": 5479042756, "lat": 54.7348072, "lon": 9.0496307}, {"type": "node", "id": 5479042757, "lat": 54.7347655, "lon": 9.0496336}, {"type": "node", "id": 5479042758, "lat": 54.7347679, "lon": 9.0497346}, {"type": "node", "id": 5479042759, "lat": 54.7349128, "lon": 9.0497246}, {"type": "node", "id": 5479042786, "lat": 54.7342703, "lon": 9.0501074}, {"type": "node", "id": 5479042787, "lat": 54.7342647, "lon": 9.0502803}, {"type": "node", "id": 5479042788, "lat": 54.734171, "lon": 9.0502712}, {"type": "node", "id": 5479042789, "lat": 54.7341766, "lon": 9.0500983}, {"type": "node", "id": 5479042874, "lat": 54.7352815, "lon": 9.0497245}, {"type": "node", "id": 5479042875, "lat": 54.7351704, "lon": 9.0497259}, {"type": "node", "id": 5479042876, "lat": 54.7351692, "lon": 9.0494272}, {"type": "node", "id": 5479042877, "lat": 54.7352802, "lon": 9.0494258}, {"type": "node", "id": 5480679494, "lat": 54.7354533, "lon": 9.0496734}, {"type": "node", "id": 5480679495, "lat": 54.7354512, "lon": 9.049954}, {"type": "node", "id": 5480679496, "lat": 54.7353398, "lon": 9.0499515}, {"type": "node", "id": 5480679497, "lat": 54.7353418, "lon": 9.049671}, {"type": "node", "id": 5480679498, "lat": 54.7356556, "lon": 9.04975}, {"type": "node", "id": 5480679499, "lat": 54.7358396, "lon": 9.0499466}, {"type": "node", "id": 5480679500, "lat": 54.7357939, "lon": 9.0500747}, {"type": "node", "id": 5480679501, "lat": 54.7357517, "lon": 9.0500296}, {"type": "node", "id": 5480679502, "lat": 54.7357189, "lon": 9.0501218}, {"type": "node", "id": 5480679503, "lat": 54.7356646, "lon": 9.0500638}, {"type": "node", "id": 5480679504, "lat": 54.7357022, "lon": 9.0499583}, {"type": "node", "id": 5480679505, "lat": 54.7356147, "lon": 9.0498649}, {"type": "node", "id": 5480909442, "lat": 54.734346, "lon": 9.0497475}, {"type": "node", "id": 5480909443, "lat": 54.7343297, "lon": 9.0499068}, {"type": "node", "id": 5480909444, "lat": 54.73423, "lon": 9.0498762}, {"type": "node", "id": 5480909445, "lat": 54.7342463, "lon": 9.0497169}, {"type": "node", "id": 5480909446, "lat": 54.7349608, "lon": 9.0506511}, {"type": "node", "id": 5480909447, "lat": 54.7349618, "lon": 9.0508085}, {"type": "node", "id": 5486798577, "lat": 54.7358325, "lon": 9.0491963}, {"type": "node", "id": 5486798578, "lat": 54.7357386, "lon": 9.0491819}, {"type": "node", "id": 5486798579, "lat": 54.7357283, "lon": 9.0493833}, {"type": "node", "id": 5486798580, "lat": 54.7357897, "lon": 9.0493928}, {"type": "node", "id": 5486798581, "lat": 54.7357945, "lon": 9.0493003}, {"type": "node", "id": 5486798582, "lat": 54.7358269, "lon": 9.0493053}, {"type": "node", "id": 5486814370, "lat": 54.7344834, "lon": 9.0500099}, {"type": "node", "id": 5486814371, "lat": 54.7344776, "lon": 9.0501524}, {"type": "node", "id": 5486814372, "lat": 54.7343308, "lon": 9.0501344}, {"type": "node", "id": 5486814373, "lat": 54.7343366, "lon": 9.049992}, {"type": "node", "id": 5486814374, "lat": 54.7345043, "lon": 9.0497137}, {"type": "node", "id": 5486814375, "lat": 54.7344955, "lon": 9.0498491}, {"type": "node", "id": 5486814376, "lat": 54.7343532, "lon": 9.0498212}, {"type": "node", "id": 5486814377, "lat": 54.7343621, "lon": 9.0496858}, {"type": "way", "id": 569766633, "nodes": [5478982492, 5478982493, 5478982494, 5478982495, 5478982492], "tags": {"addr:city": "Stadum", "addr:housenumber": "1", "addr:postcode": "25917", "addr:street": "S\u00fcderl\u00fccken", "building": "house", "building:levels": "1", "roof:colour": "black", "roof:levels": "1", "roof:shape": "gabled"}}, {"type": "way", "id": 569766634, "nodes": [5478982496, 5478982497, 5478982498, 5478982499, 5478982500, 5478982501, 5478982502, 5478982503, 5478982496], "tags": {"addr:city": "Stadum", "addr:housenumber": "7", "addr:postcode": "25917", "addr:street": "Alter Reitplatz", "building": "yes", "building:levels": "1", "roof:colour": "red", "roof:levels": "1", "roof:material": "roof_tiles", "roof:shape": "gabled"}}, {"type": "way", "id": 569766635, "nodes": [5478982504, 5478982505, 5478982506, 5478982507, 5478982504], "tags": {"addr:city": "Stadum", "addr:postcode": "25917", "addr:street": "S\u00fcderl\u00fccken", "building": "yes", "building:levels": "1", "roof:colour": "grey", "roof:levels": "1", "roof:shape": "gabled"}}, {"type": "way", "id": 569766636, "nodes": [5478982508, 5478982509, 5478982510, 5478982511, 5478982508], "tags": {"addr:city": "Stadum", "addr:housenumber": "1", "addr:postcode": "25917", "addr:street": "Schlo\u00dfbergstra\u00dfe", "building": "yes", "building:levels": "1", "roof:colour": "red", "roof:levels": "1", "roof:material": "roof_tiles", "roof:shape": "hipped"}}, {"type": "way", "id": 569766637, "nodes": [5478982512, 5478982513, 5478982514, 5478982515, 5478982516, 5478982517, 5478982512], "tags": {"addr:city": "Stadum", "addr:housenumber": "9-8", "addr:postcode": "25917", "addr:street": "Alter Reitplatz", "building": "yes", "building:levels": "1", "roof:colour": "black", "roof:levels": "1", "roof:shape": "gabled"}}, {"type": "way", "id": 569766638, "nodes": [5478982518, 5478982519, 5478982520, 5478985821, 5478982518], "tags": {"addr:city": "Stadum", "addr:housenumber": "4", "addr:postcode": "25917", "addr:street": "Alter Reitplatz", "building": "yes", "building:levels": "1", "roof:colour": "red", "roof:levels": "1", "roof:shape": "gabled"}}, {"type": "way", "id": 569766639, "nodes": [5478985822, 5478985823, 5478985824, 5478985825, 5478985822], "tags": {"addr:city": "Stadum", "addr:housenumber": "1", "addr:postcode": "25917", "addr:street": "Alter Reitplatz", "building": "yes", "building:levels": "1", "roof:colour": "black", "roof:levels": "1", "roof:shape": "gabled"}}, {"type": "way", "id": 569766640, "nodes": [5478985826, 5478985827, 5478985828, 5478985829, 5478985826], "tags": {"addr:city": "Stadum", "addr:housenumber": "2", "addr:postcode": "25917", "addr:street": "Alter Reitplatz", "building": "yes", "building:levels": "1", "roof:colour": "black", "roof:levels": "1", "roof:shape": "gabled"}}, {"type": "way", "id": 569771350, "nodes": [5479042724, 5479042725, 5479042726, 5479042727, 5479042724], "tags": {"addr:city": "Stadum", "addr:housenumber": "8", "addr:postcode": "25917", "addr:street": "M\u00fchlenberg", "building": "house", "building:levels": "1", "roof:colour": "black", "roof:levels": "1", "roof:shape": "gabled"}}, {"type": "way", "id": 569771351, "nodes": [5479042728, 5479042729, 5479042730, 5479042731, 5479042728], "tags": {"addr:city": "Stadum", "addr:housenumber": "10", "addr:postcode": "25917", "addr:street": "M\u00fchlenberg", "building": "house", "building:levels": "1", "roof:colour": "black", "roof:levels": "1", "roof:shape": "gabled"}}, {"type": "way", "id": 569771352, "nodes": [5479042732, 5479042733, 5479042734, 5479042735, 5479042732], "tags": {"addr:city": "Stadum", "addr:housenumber": "12", "addr:postcode": "25917", "addr:street": "M\u00fchlenberg", "building": "house", "building:levels": "1", "roof:colour": "black", "roof:levels": "1", "roof:shape": "gabled"}}, {"type": "way", "id": 569771353, "nodes": [5479042736, 5479042737, 5479042738, 5479042739, 5479042736], "tags": {"addr:city": "Stadum", "addr:housenumber": "14", "addr:postcode": "25917", "addr:street": "M\u00fchlenberg", "building": "house", "building:levels": "1", "roof:colour": "black", "roof:levels": "1", "roof:shape": "gabled"}}, {"type": "way", "id": 569771354, "nodes": [5479042740, 5479042741, 5479042742, 5479042743, 5479042744, 5479042745, 5479042740], "tags": {"addr:city": "Stadum", "addr:housenumber": "2", "addr:postcode": "25917", "addr:street": "M\u00fchlenberg", "building": "house", "building:levels": "1", "roof:colour": "red", "roof:levels": "1", "roof:shape": "gabled"}}, {"type": "way", "id": 569771355, "nodes": [5479042746, 5479042747, 5479042748, 5479042749, 5479042746], "tags": {"addr:city": "Stadum", "addr:housenumber": "5", "addr:postcode": "25917", "addr:street": "M\u00fchlenberg", "building": "house", "building:levels": "1", "roof:colour": "black", "roof:levels": "1", "roof:shape": "gabled"}}, {"type": "way", "id": 569771357, "nodes": [5479042754, 5479042755, 5479042756, 5479042757, 5479042758, 5479042759, 5479042754], "tags": {"addr:city": "Stadum", "addr:housenumber": "8", "addr:postcode": "25917", "addr:street": "Schlo\u00dfbergstra\u00dfe", "building": "house", "building:levels": "1", "roof:colour": "black", "roof:levels": "1", "roof:shape": "hipped"}}, {"type": "way", "id": 569771363, "nodes": [5479042786, 5479042787, 5479042788, 5479042789, 5479042786], "tags": {"addr:city": "Stadum", "addr:housenumber": "6", "addr:postcode": "25917", "addr:street": "M\u00fchlenberg", "building": "house", "building:levels": "1", "roof:colour": "black", "roof:levels": "1", "roof:shape": "gabled"}}, {"type": "way", "id": 569771372, "nodes": [5479042874, 5479042875, 5479042876, 5479042877, 5479042874], "tags": {"addr:city": "Stadum", "addr:housenumber": "6", "addr:postcode": "25917", "addr:street": "Schlo\u00dfbergstra\u00dfe", "building": "house", "building:levels": "1", "roof:colour": "brown", "roof:levels": "1", "roof:material": "roof_tiles", "roof:shape": "half-hipped"}}, {"type": "way", "id": 570006489, "nodes": [5480679494, 5480679495, 5480679496, 5480679497, 5480679494], "tags": {"addr:city": "Stadum", "addr:housenumber": "4", "addr:postcode": "25917", "addr:street": "Schlo\u00dfbergstra\u00dfe", "building": "yes", "roof:colour": "grey", "roof:levels": "1", "roof:material": "roof_tiles", "roof:shape": "hipped"}}, {"type": "way", "id": 570006491, "nodes": [5480679498, 5480679499, 5480679500, 5480679501, 5480679502, 5480679503, 5480679504, 5480679505, 5480679498], "tags": {"addr:city": "Stadum", "addr:housenumber": "2", "addr:postcode": "25917", "addr:street": "Schlo\u00dfbergstra\u00dfe", "building": "house", "building:levels": "1", "roof:colour": "grey", "roof:levels": "1", "roof:shape": "hipped"}}, {"type": "way", "id": 570033893, "nodes": [5480909442, 5480909443, 5480909444, 5480909445, 5480909442], "tags": {"addr:city": "Stadum", "addr:housenumber": "4", "addr:postcode": "25917", "addr:street": "M\u00fchlenberg", "building": "house", "building:levels": "1", "roof:colour": "black", "roof:levels": "1", "roof:shape": "gabled"}}, {"type": "way", "id": 570033894, "nodes": [5478982518, 5480909446, 5480909447, 5478985821, 5478982518], "tags": {"addr:city": "Stadum", "addr:housenumber": "3", "addr:postcode": "25917", "addr:street": "Alter Reitplatz", "building": "house", "building:levels": "1", "roof:colour": "red", "roof:levels": "1", "roof:shape": "gabled"}}, {"type": "way", "id": 570722661, "nodes": [5486798577, 5486798578, 5486798579, 5486798580, 5486798581, 5486798582, 5486798577], "tags": {"building": "yes", "building:levels": "1", "building:levels_1": "1", "roof:colour": "green", "roof:colour_1": "red", "roof:levels": "1", "roof:material": "roof_tiles", "roof:shape": "gabled"}}, {"type": "way", "id": 570724107, "nodes": [5486814370, 5486814371, 5486814372, 5486814373, 5486814370], "tags": {"addr:city": "Stadum", "addr:housenumber": "6", "addr:postcode": "25917", "addr:street": "M\u00fchlenberg", "building": "yes", "building:levels": "1", "roof:colour": "grey", "roof:shape": "flat"}}, {"type": "way", "id": 570724108, "nodes": [5486814374, 5486814375, 5486814376, 5486814377, 5486814374], "tags": {"addr:city": "Stadum", "addr:housenumber": "4", "addr:postcode": "25917", "addr:street": "M\u00fchlenberg", "building": "yes", "building:levels": "1", "roof:colour": "grey", "roof:shape": "flat"}}]}