{"version": 0.6, "generator": "Overpass API 0.7.62.1 084b4234", "osm3s": {"timestamp_osm_base": "2024-06-07T14:43:31Z", "copyright": "The data included in this document is from www.openstreetmap.org. The data is made available under ODbL."}, "elements": [{"type": "node", "id": 3077399638, "lat": 51.3554562, "lon": 8.2542859}, {"type": "node", "id": 3077399642, "lat": 51.3554747, "lon": 8.2541936}, {"type": "node", "id": 3077399643, "lat": 51.3554761, "lon": 8.2543486}, {"type": "node", "id": 3077399661, "lat": 51.3555336, "lon": 8.2543772}, {"type": "node", "id": 3077399667, "lat": 51.3555696, "lon": 8.2543486}, {"type": "node", "id": 3077399668, "lat": 51.3555749, "lon": 8.254063}, {"type": "node", "id": 3077399671, "lat": 51.3555873, "lon": 8.2541019}, {"type": "node", "id": 3077399683, "lat": 51.3556245, "lon": 8.2543766}, {"type": "node", "id": 3077399716, "lat": 51.3556606, "lon": 8.2543244}, {"type": "node", "id": 3077399721, "lat": 51.3556665, "lon": 8.2543427}, {"type": "node", "id": 3077399750, "lat": 51.3557756, "lon": 8.2555479}, {"type": "node", "id": 3077399764, "lat": 51.355845, "lon": 8.2557861}, {"type": "node", "id": 3077399768, "lat": 51.3558601, "lon": 8.2541611}, {"type": "node", "id": 3077399775, "lat": 51.3558838, "lon": 8.2542343}, {"type": "node", "id": 3077399784, "lat": 51.3558983, "lon": 8.2537998}, {"type": "node", "id": 3077399806, "lat": 51.3559431, "lon": 8.2540933}, {"type": "node", "id": 3077399808, "lat": 51.3559668, "lon": 8.2541666}, {"type": "node", "id": 3077399814, "lat": 51.3559823, "lon": 8.2540612}, {"type": "node", "id": 3077399836, "lat": 51.3560759, "lon": 8.2553247}, {"type": "node", "id": 3077399849, "lat": 51.3561454, "lon": 8.2555627}, {"type": "node", "id": 3077414545, "lat": 51.3559613, "lon": 8.2527799}, {"type": "node", "id": 3077414548, "lat": 51.3560395, "lon": 8.2530196}, {"type": "node", "id": 3077414551, "lat": 51.356092, "lon": 8.252975}, {"type": "node", "id": 3077414554, "lat": 51.3561382, "lon": 8.2526295}, {"type": "node", "id": 3077414555, "lat": 51.3562031, "lon": 8.2528285}, {"type": "node", "id": 3077414562, "lat": 51.3563225, "lon": 8.2527261}, {"type": "node", "id": 3077414563, "lat": 51.3563482, "lon": 8.2528042}, {"type": "node", "id": 3077414564, "lat": 51.3563849, "lon": 8.2538629}, {"type": "node", "id": 3077414567, "lat": 51.3564189, "lon": 8.2536343}, {"type": "node", "id": 3077414568, "lat": 51.3564338, "lon": 8.2527278}, {"type": "node", "id": 3077414569, "lat": 51.3564343, "lon": 8.2527293}, {"type": "node", "id": 3077414570, "lat": 51.3564501, "lon": 8.2541533}, {"type": "node", "id": 3077414573, "lat": 51.3564708, "lon": 8.2537899}, {"type": "node", "id": 3077414576, "lat": 51.3565768, "lon": 8.2534976}, {"type": "node", "id": 3077414577, "lat": 51.3565773, "lon": 8.2534995}, {"type": "node", "id": 3077414578, "lat": 51.356583, "lon": 8.2525989}, {"type": "node", "id": 3077414579, "lat": 51.3566292, "lon": 8.2546996}, {"type": "node", "id": 3077414580, "lat": 51.3566336, "lon": 8.2527518}, {"type": "node", "id": 3077414581, "lat": 51.356657, "lon": 8.2526077}, {"type": "node", "id": 3077414582, "lat": 51.356663, "lon": 8.2534216}, {"type": "node", "id": 3077414583, "lat": 51.3566636, "lon": 8.2534229}, {"type": "node", "id": 3077414584, "lat": 51.3566777, "lon": 8.2548446}, {"type": "node", "id": 3077414585, "lat": 51.3566805, "lon": 8.2539604}, {"type": "node", "id": 3077414586, "lat": 51.3566893, "lon": 8.2527061}, {"type": "node", "id": 3077414587, "lat": 51.3567265, "lon": 8.2549966}, {"type": "node", "id": 3077414588, "lat": 51.356734, "lon": 8.254799}, {"type": "node", "id": 3077414589, "lat": 51.3567669, "lon": 8.2551199}, {"type": "node", "id": 3077414590, "lat": 51.3567808, "lon": 8.2551647}, {"type": "node", "id": 3077414591, "lat": 51.3567812, "lon": 8.2551647}, {"type": "node", "id": 3077414592, "lat": 51.3567829, "lon": 8.2549514}, {"type": "node", "id": 3077414593, "lat": 51.3567858, "lon": 8.2550252}, {"type": "node", "id": 3077414594, "lat": 51.3568037, "lon": 8.2552359}, {"type": "node", "id": 3077414595, "lat": 51.356806, "lon": 8.2550877}, {"type": "node", "id": 3077414596, "lat": 51.3568075, "lon": 8.2524834}, {"type": "node", "id": 3077414597, "lat": 51.356813, "lon": 8.2532954}, {"type": "node", "id": 3077414598, "lat": 51.3568321, "lon": 8.2538336}, {"type": "node", "id": 3077414599, "lat": 51.3568534, "lon": 8.2549697}, {"type": "node", "id": 3077414600, "lat": 51.3568598, "lon": 8.2545069}, {"type": "node", "id": 3077414601, "lat": 51.3568663, "lon": 8.2534554}, {"type": "node", "id": 3077414602, "lat": 51.3568685, "lon": 8.2532489}, {"type": "node", "id": 3077414603, "lat": 51.3568807, "lon": 8.2537279}, {"type": "node", "id": 3077414604, "lat": 51.3568823, "lon": 8.2547108}, {"type": "node", "id": 3077414605, "lat": 51.3568853, "lon": 8.2532997}, {"type": "node", "id": 3077414610, "lat": 51.3569039, "lon": 8.2549391}, {"type": "node", "id": 3077414611, "lat": 51.3569109, "lon": 8.2551486}, {"type": "node", "id": 3077414612, "lat": 51.3569184, "lon": 8.2532719}, {"type": "node", "id": 3077414613, "lat": 51.3569458, "lon": 8.254904}, {"type": "node", "id": 3077414615, "lat": 51.3569547, "lon": 8.2533815}, {"type": "node", "id": 3077414618, "lat": 51.3569677, "lon": 8.2551335}, {"type": "node", "id": 3077414623, "lat": 51.3569784, "lon": 8.2540316}, {"type": "node", "id": 3077414624, "lat": 51.3569796, "lon": 8.2540304}, {"type": "node", "id": 3077414632, "lat": 51.3570054, "lon": 8.2546081}, {"type": "node", "id": 3077415533, "lat": 51.3570068, "lon": 8.254612}, {"type": "node", "id": 3077415535, "lat": 51.3570097, "lon": 8.2550985}, {"type": "node", "id": 3077415536, "lat": 51.3570114, "lon": 8.2543801}, {"type": "node", "id": 3077415540, "lat": 51.3570221, "lon": 8.255137}, {"type": "node", "id": 3077415545, "lat": 51.3570306, "lon": 8.2545913}, {"type": "node", "id": 3077415547, "lat": 51.357035, "lon": 8.2531734}, {"type": "node", "id": 3077415553, "lat": 51.3570849, "lon": 8.254356}, {"type": "node", "id": 3077415559, "lat": 51.3571016, "lon": 8.2539283}, {"type": "node", "id": 3077415560, "lat": 51.3571026, "lon": 8.2539309}, {"type": "node", "id": 3077415569, "lat": 51.3571345, "lon": 8.253904}, {"type": "node", "id": 3077415571, "lat": 51.3571641, "lon": 8.2534912}, {"type": "node", "id": 3077415572, "lat": 51.3571694, "lon": 8.2550136}, {"type": "node", "id": 3077415583, "lat": 51.3572081, "lon": 8.2542526}, {"type": "node", "id": 3077415592, "lat": 51.3572373, "lon": 8.2542173}, {"type": "node", "id": 3077415593, "lat": 51.3572399, "lon": 8.2542259}, {"type": "node", "id": 3077415602, "lat": 51.3572926, "lon": 8.2551865}, {"type": "node", "id": 3077415607, "lat": 51.3573058, "lon": 8.2544371}, {"type": "node", "id": 3077415612, "lat": 51.3573229, "lon": 8.2554073}, {"type": "node", "id": 3077415616, "lat": 51.3573446, "lon": 8.2554721}, {"type": "node", "id": 3077415618, "lat": 51.3573558, "lon": 8.2553788}, {"type": "node", "id": 3077415626, "lat": 51.3573665, "lon": 8.2541094}, {"type": "node", "id": 3077415741, "lat": 51.3574128, "lon": 8.2547611}, {"type": "node", "id": 3077415746, "lat": 51.3574257, "lon": 8.2543364}, {"type": "node", "id": 3077415749, "lat": 51.3574348, "lon": 8.2556919}, {"type": "node", "id": 3077415751, "lat": 51.357438, "lon": 8.2533315}, {"type": "node", "id": 3077415757, "lat": 51.3574716, "lon": 8.2558209}, {"type": "node", "id": 3077415761, "lat": 51.3575199, "lon": 8.2559905}, {"type": "node", "id": 3077415762, "lat": 51.3575326, "lon": 8.2546607}, {"type": "node", "id": 3077415763, "lat": 51.3575519, "lon": 8.2557628}, {"type": "node", "id": 3077415768, "lat": 51.3576002, "lon": 8.2559323}, {"type": "node", "id": 3077415769, "lat": 51.3576018, "lon": 8.2562799}, {"type": "node", "id": 3077415770, "lat": 51.3576024, "lon": 8.2562799}, {"type": "node", "id": 3077415771, "lat": 51.3576151, "lon": 8.2549157}, {"type": "node", "id": 3077415772, "lat": 51.3576167, "lon": 8.2555602}, {"type": "node", "id": 3077415773, "lat": 51.3576327, "lon": 8.253924}, {"type": "node", "id": 3077415774, "lat": 51.3576337, "lon": 8.2539232}, {"type": "node", "id": 3077415775, "lat": 51.357645, "lon": 8.2539651}, {"type": "node", "id": 3077415776, "lat": 51.3576459, "lon": 8.2539642}, {"type": "node", "id": 3077415780, "lat": 51.3576707, "lon": 8.254043}, {"type": "node", "id": 3077415789, "lat": 51.3576998, "lon": 8.255173}, {"type": "node", "id": 3077415790, "lat": 51.3577013, "lon": 8.2556301}, {"type": "node", "id": 3077415794, "lat": 51.3577286, "lon": 8.25571}, {"type": "node", "id": 3077415795, "lat": 51.357732, "lon": 8.2539911}, {"type": "node", "id": 3077415799, "lat": 51.357744, "lon": 8.2540277}, {"type": "node", "id": 3077415801, "lat": 51.3577469, "lon": 8.2530712}, {"type": "node", "id": 3077415803, "lat": 51.3577646, "lon": 8.2556786}, {"type": "node", "id": 3077415807, "lat": 51.3577828, "lon": 8.2539483}, {"type": "node", "id": 3077415808, "lat": 51.3577835, "lon": 8.2561484}, {"type": "node", "id": 3077415809, "lat": 51.3577837, "lon": 8.2536704}, {"type": "node", "id": 3077415810, "lat": 51.3577838, "lon": 8.2561482}, {"type": "node", "id": 3077415812, "lat": 51.3577947, "lon": 8.253985}, {"type": "node", "id": 3077415817, "lat": 51.3578188, "lon": 8.2559888}, {"type": "node", "id": 3077415820, "lat": 51.3578291, "lon": 8.2538072}, {"type": "node", "id": 3077415821, "lat": 51.3578299, "lon": 8.2538062}, {"type": "node", "id": 3077415823, "lat": 51.3578332, "lon": 8.2560318}, {"type": "node", "id": 3077415832, "lat": 51.3578563, "lon": 8.2538864}, {"type": "node", "id": 3077415933, "lat": 51.3578567, "lon": 8.2554953}, {"type": "node", "id": 3077415934, "lat": 51.357859, "lon": 8.2559552}, {"type": "node", "id": 3077415937, "lat": 51.3578729, "lon": 8.2559985}, {"type": "node", "id": 3077415939, "lat": 51.3579096, "lon": 8.2535642}, {"type": "node", "id": 3077415940, "lat": 51.3579573, "lon": 8.2575265}, {"type": "node", "id": 3077415943, "lat": 51.3579712, "lon": 8.2558325}, {"type": "node", "id": 3077415945, "lat": 51.3579758, "lon": 8.2563125}, {"type": "node", "id": 3077415946, "lat": 51.3579788, "lon": 8.2568354}, {"type": "node", "id": 3077415948, "lat": 51.3580365, "lon": 8.2567936}, {"type": "node", "id": 3077415949, "lat": 51.3580462, "lon": 8.2570715}, {"type": "node", "id": 3077415950, "lat": 51.3580474, "lon": 8.256832}, {"type": "node", "id": 3077415956, "lat": 51.3580663, "lon": 8.2568182}, {"type": "node", "id": 3077415961, "lat": 51.358083, "lon": 8.2568284}, {"type": "node", "id": 3077415966, "lat": 51.3580911, "lon": 8.2568576}, {"type": "node", "id": 3077415968, "lat": 51.3580962, "lon": 8.2562115}, {"type": "node", "id": 3077415975, "lat": 51.3581384, "lon": 8.2573952}, {"type": "node", "id": 3077415979, "lat": 51.3581753, "lon": 8.2567962}, {"type": "node", "id": 3077415989, "lat": 51.3582181, "lon": 8.2569462}, {"type": "node", "id": 5026593434, "lat": 51.3576257, "lon": 8.2523511}, {"type": "node", "id": 5026593435, "lat": 51.3577148, "lon": 8.2526234}, {"type": "node", "id": 5026593436, "lat": 51.3574243, "lon": 8.2528655}, {"type": "node", "id": 5026593437, "lat": 51.3573348, "lon": 8.2525959}, {"type": "way", "id": 92870291, "nodes": [3077415789, 3077415771, 3077415602, 3077415618, 3077415612, 3077415616, 3077415789], "tags": {"addr:city": "Meschede", "addr:country": "DE", "addr:housenumber": "12", "addr:postcode": "59872", "addr:street": "Auf'm Brinke", "building": "commercial", "name": "Industrie Wartung Meschede", "phone": "+49 2919527382", "website": "http://www.iwm-meschede.de/"}}, {"type": "way", "id": 92870300, "nodes": [3077415545, 3077415533, 3077414632, 3077414604, 3077414613, 3077414610, 3077414618, 3077415535, 3077415540, 3077415572, 3077415545], "tags": {"addr:city": "Meschede", "addr:country": "DE", "addr:housenumber": "8", "addr:postcode": "59872", "addr:street": "Auf'm Brinke", "building": "commercial", "name": "Tierbedarf Kirschstein", "opening_hours": "Mo-Fr 08:00-18:30;Sa 08:00-14:00", "phone": "+49 291 51587", "shop": "pet", "website": "http://www.kirschstein-meschede.de/index.php?content=start"}}, {"type": "way", "id": 93041463, "nodes": [3077415808, 3077415810, 3077415772, 3077415749, 3077415757, 3077415763, 3077415768, 3077415761, 3077415769, 3077415770, 3077415940, 3077415975, 3077415949, 3077415989, 3077415979, 3077415966, 3077415961, 3077415956, 3077415950, 3077415948, 3077415946, 3077415808], "tags": {"addr:city": "Meschede", "addr:country": "DE", "addr:housenumber": "18", "addr:postcode": "59872", "addr:street": "Auf'm Brinke", "building": "commercial", "name": "ITH Schraubtechnik", "phone": "+49 29199620", "website": "https://www.ith.de/index.php/cmd/impressum/"}}, {"type": "way", "id": 93041467, "nodes": [3077415933, 3077415790, 3077415794, 3077415803, 3077415934, 3077415817, 3077415823, 3077415937, 3077415945, 3077415968, 3077415943, 3077415933], "tags": {"addr:city": "Meschede", "addr:country": "DE", "addr:housenumber": "16", "addr:postcode": "59872", "addr:street": "Auf'm Brinke", "building": "yes", "name": "Glexx Spedition", "phone": "+49 291 952660", "website": "https://www.fb-ketten.de/"}}, {"type": "way", "id": 93238633, "nodes": [3077415746, 3077415607, 3077415741, 3077415762, 3077415746], "tags": {"addr:city": "Meschede", "addr:country": "DE", "addr:housenumber": "10", "addr:postcode": "59872", "addr:street": "Auf'm Brinke", "building": "commercial", "name": "Hirth Bedachungen", "phone": "+49 291 51117", "website": "https://www.hirth-bedachungen.de/"}}, {"type": "way", "id": 93238634, "nodes": [3077415939, 3077415801, 3077415751, 3077415774, 3077415773, 3077415776, 3077415775, 3077415780, 3077415795, 3077415799, 3077415812, 3077415807, 3077415832, 3077415820, 3077415821, 3077415809, 3077415939], "tags": {"addr:city": "Meschede", "addr:country": "DE", "addr:housenumber": "1", "addr:postcode": "59872", "addr:street": "Zum Rohland", "building": "yes", "name": "Buderus Heiztechnik NL Meschede", "website": "https://www.buderus.de/"}}, {"type": "way", "id": 93364259, "nodes": [3077399768, 3077399775, 3077399808, 3077399806, 3077399814, 3077399784, 3077399668, 3077399671, 3077399642, 3077399638, 3077399643, 3077399661, 3077399667, 3077399683, 3077399721, 3077399716, 3077399768], "tags": {"addr:city": "Meschede", "addr:country": "DE", "addr:housenumber": "21", "addr:postcode": "59872", "addr:street": "Im Schlahbruch", "building": "yes", "name": "Schulte-Henke GmbH", "phone": "+49 291 2070", "website": "https://www.stabau.com/"}}, {"type": "way", "id": 93494704, "nodes": [3077399849, 3077399836, 3077399750, 3077399764, 3077399849], "tags": {"addr:city": "Meschede", "addr:country": "DE", "addr:housenumber": "27", "addr:postcode": "59872", "addr:street": "Im Schlahbruch", "building": "yes"}}, {"type": "way", "id": 210593907, "nodes": [3077414585, 3077414570, 3077414579, 3077414600, 3077414585], "tags": {"building": "yes"}}, {"type": "way", "id": 303386776, "nodes": [3077414578, 3077414568, 3077414569, 3077414563, 3077414562, 3077414555, 3077414554, 3077414545, 3077414548, 3077414551, 3077414564, 3077414573, 3077414567, 3077414577, 3077414576, 3077414582, 3077414583, 3077414597, 3077414580, 3077414578], "tags": {"addr:city": "Meschede", "addr:housenumber": "4", "addr:postcode": "59872", "addr:street": "Auf'm Brinke", "building": "commercial"}}, {"type": "way", "id": 303386780, "nodes": [3077414588, 3077414584, 3077414587, 3077414592, 3077414588], "tags": {"building": "yes"}}, {"type": "way", "id": 303386788, "nodes": [3077414586, 3077414580, 3077414597, 3077414602, 3077414586], "tags": {"building": "yes"}}, {"type": "way", "id": 303386791, "nodes": [3077414598, 3077414585, 3077414600, 3077415536, 3077414598], "tags": {"building": "yes"}}, {"type": "way", "id": 303386795, "nodes": [3077415569, 3077415560, 3077415583, 3077415593, 3077415592, 3077415569], "tags": {"building": "yes"}}, {"type": "way", "id": 303386796, "nodes": [3077414612, 3077414605, 3077414602, 3077414597, 3077414601, 3077414615, 3077414612], "tags": {"building": "yes"}}, {"type": "way", "id": 303386797, "nodes": [3077415559, 3077414624, 3077414623, 3077415553, 3077415583, 3077415560, 3077415559], "tags": {"addr:city": "Meschede", "addr:housenumber": "6", "addr:postcode": "59872", "addr:street": "Auf'm Brinke", "building": "commercial"}}, {"type": "way", "id": 303386802, "nodes": [3077414596, 3077414581, 3077414586, 3077414602, 3077414605, 3077414612, 3077415547, 3077414596], "tags": {"building": "yes"}}, {"type": "way", "id": 303386803, "nodes": [3077414599, 3077414593, 3077414595, 3077414589, 3077414590, 3077414591, 3077414594, 3077414611, 3077414599], "tags": {"addr:city": "Meschede", "addr:housenumber": "8", "addr:postcode": "59872", "addr:street": "Auf'm Brinke", "building": "commercial"}}, {"type": "way", "id": 303386805, "nodes": [3077415571, 3077414603, 3077414624, 3077415559, 3077415560, 3077415569, 3077415592, 3077415626, 3077415571], "tags": {"building": "yes"}}, {"type": "way", "id": 514532939, "nodes": [5026593434, 5026593435, 5026593436, 5026593437, 5026593434], "tags": {"building": "yes"}}]}