{"version": 0.6, "generator": "Overpass API 0.7.62.1 084b4234", "osm3s": {"timestamp_osm_base": "2024-06-07T13:57:38Z", "copyright": "The data included in this document is from www.openstreetmap.org. The data is made available under ODbL."}, "elements": [{"type": "node", "id": 1322307436, "lat": 54.6861261, "lon": 8.4949311}, {"type": "node", "id": 1936602077, "lat": 54.686293, "lon": 8.4931576}, {"type": "node", "id": 1936602082, "lat": 54.6864301, "lon": 8.4926387}, {"type": "node", "id": 1936602083, "lat": 54.6864111, "lon": 8.4942091}, {"type": "node", "id": 1936602084, "lat": 54.6864036, "lon": 8.4925048}, {"type": "node", "id": 1936602085, "lat": 54.6865138, "lon": 8.4946224}, {"type": "node", "id": 1936602086, "lat": 54.6863184, "lon": 8.4940602}, {"type": "node", "id": 1936602092, "lat": 54.6861986, "lon": 8.494155}, {"type": "node", "id": 1936602104, "lat": 54.686351, "lon": 8.4939023}, {"type": "node", "id": 1936602109, "lat": 54.6861004, "lon": 8.4940971}, {"type": "node", "id": 1936602110, "lat": 54.6866353, "lon": 8.492507}, {"type": "node", "id": 1936602111, "lat": 54.686136, "lon": 8.4939169}, {"type": "node", "id": 1936602112, "lat": 54.686186, "lon": 8.4933747}, {"type": "node", "id": 1936602123, "lat": 54.6864605, "lon": 8.4939699}, {"type": "node", "id": 1936602130, "lat": 54.6866209, "lon": 8.4936035}, {"type": "node", "id": 1936602139, "lat": 54.6859214, "lon": 8.4937431}, {"type": "node", "id": 1936602141, "lat": 54.6867254, "lon": 8.4930719}, {"type": "node", "id": 1936602142, "lat": 54.6866023, "lon": 8.4945017}, {"type": "node", "id": 1936602166, "lat": 54.6863375, "lon": 8.494072}, {"type": "node", "id": 1936602171, "lat": 54.6861949, "lon": 8.493116}, {"type": "node", "id": 1936602173, "lat": 54.6867988, "lon": 8.4937468}, {"type": "node", "id": 1936602175, "lat": 54.6867007, "lon": 8.4936802}, {"type": "node", "id": 1936602200, "lat": 54.6862228, "lon": 8.4929196}, {"type": "node", "id": 1936602208, "lat": 54.6866128, "lon": 8.4926837}, {"type": "node", "id": 1936602212, "lat": 54.6865893, "lon": 8.493023}, {"type": "node", "id": 1936602217, "lat": 54.6867859, "lon": 8.4925646}, {"type": "node", "id": 1936602218, "lat": 54.6859618, "lon": 8.4940225}, {"type": "node", "id": 1936602226, "lat": 54.6866091, "lon": 8.4928587}, {"type": "node", "id": 1936602231, "lat": 54.686545, "lon": 8.494376}, {"type": "node", "id": 1936602234, "lat": 54.6867513, "lon": 8.4934573}, {"type": "node", "id": 1936602238, "lat": 54.6868201, "lon": 8.4922267}, {"type": "node", "id": 1936602250, "lat": 54.6867451, "lon": 8.4929076}, {"type": "node", "id": 1936602265, "lat": 54.6867975, "lon": 8.492446}, {"type": "node", "id": 1936602266, "lat": 54.6867634, "lon": 8.4927412}, {"type": "node", "id": 1936602267, "lat": 54.6863101, "lon": 8.4934093}, {"type": "node", "id": 1936602278, "lat": 54.6860112, "lon": 8.4938038}, {"type": "node", "id": 1936602292, "lat": 54.686556, "lon": 8.49338}, {"type": "node", "id": 1936602302, "lat": 54.6862965, "lon": 8.4922804}, {"type": "node", "id": 1936602316, "lat": 54.6868494, "lon": 8.4935239}, {"type": "node", "id": 1936602325, "lat": 54.6866908, "lon": 8.4921868}, {"type": "node", "id": 1936602336, "lat": 54.685872, "lon": 8.4939618}, {"type": "node", "id": 1936602352, "lat": 54.6863209, "lon": 8.4929612}, {"type": "node", "id": 1936602382, "lat": 54.6863043, "lon": 8.4927678}, {"type": "node", "id": 1936602428, "lat": 54.6862001, "lon": 8.4932234}, {"type": "node", "id": 1936602437, "lat": 54.6862731, "lon": 8.4924514}, {"type": "node", "id": 1936602461, "lat": 54.6865283, "lon": 8.493561}, {"type": "node", "id": 1936602517, "lat": 54.6862341, "lon": 8.4939748}, {"type": "node", "id": 1936602524, "lat": 54.686327, "lon": 8.4925976}, {"type": "node", "id": 1936602556, "lat": 54.6862064, "lon": 8.4949637}, {"type": "node", "id": 1936602568, "lat": 54.6866682, "lon": 8.4924061}, {"type": "node", "id": 1936602574, "lat": 54.6861553, "lon": 8.4947163}, {"type": "node", "id": 1936602599, "lat": 54.686427, "lon": 8.4923338}, {"type": "node", "id": 1936602616, "lat": 54.6862355, "lon": 8.494749}, {"type": "node", "id": 1936602691, "lat": 54.6863242, "lon": 8.4932581}, {"type": "node", "id": 1936602694, "lat": 54.6863308, "lon": 8.4940002}, {"type": "node", "id": 1936602722, "lat": 54.6864074, "lon": 8.492809}, {"type": "node", "id": 1936602739, "lat": 54.6863207, "lon": 8.4941532}, {"type": "node", "id": 1936602752, "lat": 54.6866486, "lon": 8.4934224}, {"type": "node", "id": 1936602754, "lat": 54.6864565, "lon": 8.4944967}, {"type": "node", "id": 1962556906, "lat": 54.6865639, "lon": 8.494244}, {"type": "node", "id": 1962556907, "lat": 54.6866518, "lon": 8.4941197}, {"type": "node", "id": 1962556908, "lat": 54.6866368, "lon": 8.4943982}, {"type": "node", "id": 1962556910, "lat": 54.6867247, "lon": 8.4942739}, {"type": "node", "id": 11161499215, "lat": 54.6858752, "lon": 8.4940263}, {"type": "node", "id": 11161499216, "lat": 54.6858545, "lon": 8.4941222}, {"type": "node", "id": 11161499217, "lat": 54.685925, "lon": 8.4941676}, {"type": "node", "id": 11161499218, "lat": 54.6859457, "lon": 8.4940717}, {"type": "way", "id": 183281499, "nodes": [1936602200, 1936602171, 1936602077, 1936602352, 1936602200], "tags": {"addr:city": "Nieblum", "addr:country": "DE", "addr:housenumber": "3", "addr:postcode": "25938", "addr:street": "Westerheideweg", "building": "house"}}, {"type": "way", "id": 183281504, "nodes": [1936602139, 1936602336, 1936602218, 1936602278, 1936602139], "tags": {"addr:city": "Nieblum", "addr:country": "DE", "addr:housenumber": "35", "addr:postcode": "25938", "addr:street": "Strandstra\u00dfe", "building": "house"}}, {"type": "way", "id": 183281536, "nodes": [1936602292, 1936602461, 1936602130, 1936602752, 1936602292], "tags": {"addr:city": "Nieblum", "addr:country": "DE", "addr:housenumber": "2", "addr:postcode": "25938", "addr:street": "Westerheideweg", "building": "house"}}, {"type": "way", "id": 183281537, "nodes": [1322307436, 1936602556, 1936602616, 1936602574, 1322307436], "tags": {"addr:city": "Nieblum", "addr:country": "DE", "addr:housenumber": "6", "addr:postcode": "25938", "addr:street": "Meetsweg", "building": "house"}}, {"type": "way", "id": 183281564, "nodes": [1936602234, 1936602175, 1936602173, 1936602316, 1936602234], "tags": {"addr:city": "Nieblum", "addr:country": "DE", "addr:housenumber": "32", "addr:postcode": "25938", "addr:street": "Strandstra\u00dfe", "building": "house"}}, {"type": "way", "id": 183281565, "nodes": [1936602524, 1936602382, 1936602722, 1936602082, 1936602524], "tags": {"addr:city": "Nieblum", "addr:country": "DE", "addr:housenumber": "5", "addr:postcode": "25938", "addr:street": "Westerheideweg", "building": "house"}}, {"type": "way", "id": 183281576, "nodes": [1936602428, 1936602112, 1936602267, 1936602691, 1936602428], "tags": {"addr:city": "Nieblum", "addr:country": "DE", "addr:housenumber": "1", "addr:postcode": "25938", "addr:street": "Westerheideweg", "building": "house"}}, {"type": "way", "id": 183281601, "nodes": [1936602754, 1936602085, 1936602142, 1936602231, 1936602754], "tags": {"addr:city": "Nieblum", "addr:country": "DE", "addr:housenumber": "4", "addr:postcode": "25938", "addr:street": "Meetsweg", "building": "house"}}, {"type": "way", "id": 183281608, "nodes": [1936602325, 1936602568, 1936602265, 1936602238, 1936602325], "tags": {"addr:city": "Nieblum", "addr:country": "DE", "addr:housenumber": "8", "addr:postcode": "25938", "addr:street": "Westerheideweg", "building": "house"}}, {"type": "way", "id": 183281619, "nodes": [1936602110, 1936602208, 1936602266, 1936602217, 1936602110], "tags": {"addr:city": "Nieblum", "addr:country": "DE", "addr:housenumber": "6", "addr:postcode": "25938", "addr:street": "Westerheideweg", "building": "house"}}, {"type": "way", "id": 183281635, "nodes": [1936602302, 1936602437, 1936602084, 1936602599, 1936602302], "tags": {"addr:city": "Nieblum", "addr:country": "DE", "addr:housenumber": "7", "addr:postcode": "25938", "addr:street": "Westerheideweg", "building": "house"}}, {"type": "way", "id": 183281637, "nodes": [1936602111, 1936602109, 1936602092, 1936602517, 1936602111], "tags": {"addr:city": "Nieblum", "addr:country": "DE", "addr:housenumber": "33", "addr:postcode": "25938", "addr:street": "Strandstra\u00dfe", "building": "house"}}, {"type": "way", "id": 183281653, "nodes": [1936602694, 1936602086, 1936602166, 1936602739, 1936602083, 1936602123, 1936602104, 1936602694], "tags": {"addr:city": "Nieblum", "addr:country": "DE", "addr:housenumber": "31", "addr:postcode": "25938", "addr:street": "Strandstra\u00dfe", "building": "house"}}, {"type": "way", "id": 183281654, "nodes": [1936602226, 1936602212, 1936602141, 1936602250, 1936602226], "tags": {"addr:city": "Nieblum", "addr:country": "DE", "addr:housenumber": "4", "addr:postcode": "25938", "addr:street": "Westerheideweg", "building": "house"}}, {"type": "way", "id": 185608290, "nodes": [1962556907, 1962556910, 1962556908, 1962556906, 1962556907], "tags": {"addr:city": "Nieblum", "addr:country": "DE", "addr:housenumber": "2", "addr:postcode": "25938", "addr:street": "Meetsweg", "building": "yes"}}, {"type": "way", "id": 1204246232, "nodes": [11161499218, 11161499217, 11161499216, 11161499215, 11161499218], "tags": {"building": "yes"}}]}