{"version": 0.6, "generator": "Overpass API 0.7.62.1 084b4234", "osm3s": {"timestamp_osm_base": "2024-06-07T14:17:10Z", "copyright": "The data included in this document is from www.openstreetmap.org. The data is made available under ODbL."}, "elements": [{"type": "node", "id": 1115444181, "lat": 54.7514324, "lon": 8.9564556}, {"type": "node", "id": 1115444192, "lat": 54.7513111, "lon": 8.9563453}, {"type": "node", "id": 1115444205, "lat": 54.7510712, "lon": 8.9570742}, {"type": "node", "id": 1115444206, "lat": 54.7504541, "lon": 8.9571364}, {"type": "node", "id": 1115444210, "lat": 54.7514384, "lon": 8.9563734}, {"type": "node", "id": 1115444223, "lat": 54.7509274, "lon": 8.9568833}, {"type": "node", "id": 1115444227, "lat": 54.7514426, "lon": 8.956316}, {"type": "node", "id": 1115444229, "lat": 54.7511849, "lon": 8.9555058}, {"type": "node", "id": 1115444231, "lat": 54.7510678, "lon": 8.9565756}, {"type": "node", "id": 1115444233, "lat": 54.7510254, "lon": 8.9570275}, {"type": "node", "id": 1115444234, "lat": 54.7504209, "lon": 8.9572706}, {"type": "node", "id": 1115444244, "lat": 54.7509687, "lon": 8.9567622}, {"type": "node", "id": 1115444246, "lat": 54.7513072, "lon": 8.9555326}, {"type": "node", "id": 1115444250, "lat": 54.7510373, "lon": 8.9566889}, {"type": "node", "id": 1115444258, "lat": 54.7511905, "lon": 8.9554289}, {"type": "node", "id": 1115444275, "lat": 54.7511166, "lon": 8.9569406}, {"type": "node", "id": 1115444276, "lat": 54.7514791, "lon": 8.9564659}, {"type": "node", "id": 1115444293, "lat": 54.7514499, "lon": 8.9562169}, {"type": "node", "id": 1115444304, "lat": 54.7510709, "lon": 8.9568939}, {"type": "node", "id": 1115444318, "lat": 54.751319, "lon": 8.9553704}, {"type": "node", "id": 1115444324, "lat": 54.7509206, "lon": 8.9565947}, {"type": "node", "id": 1115444326, "lat": 54.7509511, "lon": 8.9564814}, {"type": "node", "id": 1115444341, "lat": 54.7505345, "lon": 8.9573547}, {"type": "node", "id": 1115444345, "lat": 54.7513226, "lon": 8.9561889}, {"type": "node", "id": 1115444352, "lat": 54.7510602, "lon": 8.9568559}, {"type": "node", "id": 1115444354, "lat": 54.7514883, "lon": 8.9563261}, {"type": "node", "id": 1115444356, "lat": 54.7505676, "lon": 8.9572204}, {"type": "node", "id": 1115444370, "lat": 54.7510189, "lon": 8.9569769}, {"type": "node", "id": 1118700272, "lat": 54.7511372, "lon": 8.9559772}, {"type": "node", "id": 1118700300, "lat": 54.7512461, "lon": 8.9560028}, {"type": "node", "id": 1118700305, "lat": 54.7512307, "lon": 8.9561995}, {"type": "node", "id": 1118700327, "lat": 54.7511218, "lon": 8.9561739}, {"type": "node", "id": 1119537056, "lat": 54.751563, "lon": 8.9580377}, {"type": "node", "id": 1119537057, "lat": 54.7509056, "lon": 8.9559972}, {"type": "node", "id": 1119537058, "lat": 54.7514299, "lon": 8.957841}, {"type": "node", "id": 1119537059, "lat": 54.7514762, "lon": 8.9579655}, {"type": "node", "id": 1119537061, "lat": 54.7509211, "lon": 8.9557977}, {"type": "node", "id": 1119537062, "lat": 54.7514107, "lon": 8.9579131}, {"type": "node", "id": 1119537063, "lat": 54.7514315, "lon": 8.9581268}, {"type": "node", "id": 1119537064, "lat": 54.7510247, "lon": 8.9558218}, {"type": "node", "id": 1119537065, "lat": 54.7510093, "lon": 8.9560213}, {"type": "node", "id": 1119537067, "lat": 54.7514954, "lon": 8.9578933}, {"type": "node", "id": 1119537068, "lat": 54.7515183, "lon": 8.958199}, {"type": "node", "id": 1120525517, "lat": 54.7507892, "lon": 8.9556698}, {"type": "node", "id": 1120525523, "lat": 54.750893, "lon": 8.9571905}, {"type": "node", "id": 1120525526, "lat": 54.7509962, "lon": 8.9572197}, {"type": "node", "id": 1120525553, "lat": 54.7506726, "lon": 8.9557989}, {"type": "node", "id": 1120525592, "lat": 54.7506833, "lon": 8.9556474}, {"type": "node", "id": 1120525600, "lat": 54.7509843, "lon": 8.9573469}, {"type": "node", "id": 1120525621, "lat": 54.750881, "lon": 8.9573177}, {"type": "node", "id": 1120525623, "lat": 54.7507785, "lon": 8.9558213}, {"type": "node", "id": 1129606862, "lat": 54.7510244, "lon": 8.9575645}, {"type": "node", "id": 1129606891, "lat": 54.7506026, "lon": 8.9561556}, {"type": "node", "id": 1129606913, "lat": 54.7509604, "lon": 8.9577675}, {"type": "node", "id": 1129606948, "lat": 54.7507035, "lon": 8.9565793}, {"type": "node", "id": 1129606950, "lat": 54.750883, "lon": 8.9576943}, {"type": "node", "id": 1129606964, "lat": 54.7506208, "lon": 8.9565407}, {"type": "node", "id": 1129606982, "lat": 54.750683, "lon": 8.9567112}, {"type": "node", "id": 1129606985, "lat": 54.7506003, "lon": 8.9566726}, {"type": "node", "id": 1129607002, "lat": 54.7506938, "lon": 8.9562096}, {"type": "node", "id": 1129607016, "lat": 54.750947, "lon": 8.9574913}, {"type": "node", "id": 1129607022, "lat": 54.7505819, "lon": 8.9562608}, {"type": "node", "id": 1129607024, "lat": 54.7506731, "lon": 8.9563147}, {"type": "node", "id": 1136616286, "lat": 54.7514446, "lon": 8.9554514}, {"type": "node", "id": 1136616302, "lat": 54.7513853, "lon": 8.955681}, {"type": "node", "id": 1136616348, "lat": 54.7515348, "lon": 8.9554654}, {"type": "node", "id": 1136616388, "lat": 54.7513933, "lon": 8.9555253}, {"type": "node", "id": 1136616461, "lat": 54.7514404, "lon": 8.9555327}, {"type": "node", "id": 1136616500, "lat": 54.7515225, "lon": 8.9557024}, {"type": "node", "id": 1583258029, "lat": 54.7506582, "lon": 8.9569086}, {"type": "node", "id": 1583258031, "lat": 54.7507281, "lon": 8.9570652}, {"type": "node", "id": 1583258033, "lat": 54.7507407, "lon": 8.956932}, {"type": "node", "id": 1583258035, "lat": 54.7508109, "lon": 8.9581535}, {"type": "node", "id": 1583258047, "lat": 54.7508491, "lon": 8.9580065}, {"type": "node", "id": 1583258048, "lat": 54.7508675, "lon": 8.9579389}, {"type": "node", "id": 1583258049, "lat": 54.7508779, "lon": 8.9583971}, {"type": "node", "id": 1583258050, "lat": 54.7509192, "lon": 8.9582381}, {"type": "node", "id": 1583258051, "lat": 54.7509344, "lon": 8.9580731}, {"type": "node", "id": 1583258052, "lat": 54.7509521, "lon": 8.9580065}, {"type": "node", "id": 1583258053, "lat": 54.7509562, "lon": 8.9584598}, {"type": "node", "id": 1583258054, "lat": 54.7510361, "lon": 8.9581525}, {"type": "node", "id": 1583258056, "lat": 54.7513881, "lon": 8.9577545}, {"type": "node", "id": 1583258059, "lat": 54.7514321, "lon": 8.9575846}, {"type": "node", "id": 1583258061, "lat": 54.7514981, "lon": 8.95784}, {"type": "node", "id": 1583258063, "lat": 54.7515421, "lon": 8.9576701}, {"type": "node", "id": 1595552609, "lat": 54.7510279, "lon": 8.9584289}, {"type": "node", "id": 1595552611, "lat": 54.7510898, "lon": 8.9581919}, {"type": "node", "id": 1595552614, "lat": 54.7511239, "lon": 8.9585042}, {"type": "node", "id": 1595552616, "lat": 54.7511859, "lon": 8.9582672}, {"type": "node", "id": 1595552617, "lat": 54.7511997, "lon": 8.9585793}, {"type": "node", "id": 1595552618, "lat": 54.7512513, "lon": 8.958377}, {"type": "node", "id": 1595552619, "lat": 54.7512927, "lon": 8.9586506}, {"type": "node", "id": 1595552631, "lat": 54.7513444, "lon": 8.9584483}, {"type": "node", "id": 1595552632, "lat": 54.7513646, "lon": 8.9587128}, {"type": "node", "id": 1595552633, "lat": 54.7514274, "lon": 8.9585106}, {"type": "node", "id": 1595552635, "lat": 54.7514691, "lon": 8.9588104}, {"type": "node", "id": 1595552639, "lat": 54.751532, "lon": 8.9586081}, {"type": "node", "id": 1599394361, "lat": 54.7507216, "lon": 8.9587959}, {"type": "node", "id": 1599394363, "lat": 54.7507836, "lon": 8.9585672}, {"type": "node", "id": 1599394365, "lat": 54.7508262, "lon": 8.9588812}, {"type": "node", "id": 1599394367, "lat": 54.7508882, "lon": 8.9586525}, {"type": "node", "id": 1601080797, "lat": 54.7504735, "lon": 8.9579772}, {"type": "node", "id": 1601080802, "lat": 54.7504917, "lon": 8.9577909}, {"type": "node", "id": 1601080811, "lat": 54.7506456, "lon": 8.9580279}, {"type": "node", "id": 1601080813, "lat": 54.7506639, "lon": 8.9578416}, {"type": "node", "id": 1601081013, "lat": 54.7513802, "lon": 8.957428}, {"type": "node", "id": 1601081021, "lat": 54.7514417, "lon": 8.9572225}, {"type": "node", "id": 1601081039, "lat": 54.7514813, "lon": 8.9571277}, {"type": "node", "id": 1601081045, "lat": 54.751471, "lon": 8.9575096}, {"type": "node", "id": 1601081054, "lat": 54.7515242, "lon": 8.956993}, {"type": "node", "id": 1601081061, "lat": 54.7515325, "lon": 8.9573041}, {"type": "node", "id": 1601081066, "lat": 54.7515584, "lon": 8.9572013}, {"type": "node", "id": 1601081079, "lat": 54.7516012, "lon": 8.9570666}, {"type": "node", "id": 1601791438, "lat": 54.7504916, "lon": 8.958647}, {"type": "node", "id": 1601791441, "lat": 54.7505076, "lon": 8.958486}, {"type": "node", "id": 1601791446, "lat": 54.7504524, "lon": 8.9583405}, {"type": "node", "id": 1601791447, "lat": 54.7504714, "lon": 8.9581507}, {"type": "node", "id": 1601791464, "lat": 54.7505898, "lon": 8.9586762}, {"type": "node", "id": 1601791465, "lat": 54.7506058, "lon": 8.9585152}, {"type": "node", "id": 1601791467, "lat": 54.7506119, "lon": 8.9583873}, {"type": "node", "id": 1601791468, "lat": 54.7506303, "lon": 8.9581968}, {"type": "node", "id": 1872936566, "lat": 54.7509924, "lon": 8.9576658}, {"type": "node", "id": 1872936568, "lat": 54.751099, "lon": 8.9577667}, {"type": "node", "id": 1872936572, "lat": 54.751131, "lon": 8.9576653}, {"type": "node", "id": 2754974165, "lat": 54.7512212, "lon": 8.9563202}, {"type": "node", "id": 2754974167, "lat": 54.7512494, "lon": 8.9563268}, {"type": "node", "id": 2754974168, "lat": 54.7512589, "lon": 8.9562062}, {"type": "node", "id": 9847082036, "lat": 54.7506487, "lon": 8.9570096}, {"type": "node", "id": 9847082037, "lat": 54.7506536, "lon": 8.9571112}, {"type": "node", "id": 9847082038, "lat": 54.7505796, "lon": 8.95699}, {"type": "node", "id": 9847082039, "lat": 54.7506597, "lon": 8.9570458}, {"type": "node", "id": 9847082040, "lat": 54.7505703, "lon": 8.9570877}, {"type": "node", "id": 10201526584, "lat": 54.751197, "lon": 8.9553437}, {"type": "node", "id": 11344991170, "lat": 54.7505917, "lon": 8.9580883}, {"type": "node", "id": 11344991171, "lat": 54.7506361, "lon": 8.9581013}, {"type": "node", "id": 11344991172, "lat": 54.7506418, "lon": 8.9580433}, {"type": "node", "id": 11344991173, "lat": 54.7505974, "lon": 8.9580303}, {"type": "node", "id": 11344991220, "lat": 54.7509561, "lon": 8.958605}, {"type": "node", "id": 11344991223, "lat": 54.7509386, "lon": 8.9586696}, {"type": "node", "id": 11344991224, "lat": 54.7509827, "lon": 8.9584814}, {"type": "node", "id": 11344991225, "lat": 54.7509095, "lon": 8.9584218}, {"type": "node", "id": 11344991226, "lat": 54.7508933, "lon": 8.9584815}, {"type": "node", "id": 11344991227, "lat": 54.7509665, "lon": 8.9585411}, {"type": "node", "id": 11344991228, "lat": 54.7509722, "lon": 8.9585457}, {"type": "node", "id": 11344991229, "lat": 54.7509264, "lon": 8.9585084}, {"type": "node", "id": 11344991230, "lat": 54.7509134, "lon": 8.9585562}, {"type": "node", "id": 11344991231, "lat": 54.7509299, "lon": 8.9585696}, {"type": "node", "id": 11344991232, "lat": 54.7509592, "lon": 8.9585935}, {"type": "node", "id": 11344991233, "lat": 54.7509302, "lon": 8.9587006}, {"type": "node", "id": 11344991234, "lat": 54.7509008, "lon": 8.9586767}, {"type": "node", "id": 11344991235, "lat": 54.7505416, "lon": 8.9579973}, {"type": "node", "id": 11344991236, "lat": 54.7504384, "lon": 8.9579669}, {"type": "node", "id": 11344991237, "lat": 54.7504302, "lon": 8.9580506}, {"type": "node", "id": 11344991238, "lat": 54.750422, "lon": 8.9581364}, {"type": "node", "id": 11344991239, "lat": 54.7504302, "lon": 8.9580508}, {"type": "node", "id": 11344991240, "lat": 54.7505333, "lon": 8.958081}, {"type": "node", "id": 11344991241, "lat": 54.7505252, "lon": 8.9581663}, {"type": "node", "id": 11344991242, "lat": 54.7504037, "lon": 8.9583258}, {"type": "node", "id": 11344991243, "lat": 54.7503898, "lon": 8.9584649}, {"type": "node", "id": 11344991244, "lat": 54.750498, "lon": 8.9584973}, {"type": "node", "id": 11344991245, "lat": 54.7505119, "lon": 8.9583583}, {"type": "node", "id": 11690443742, "lat": 54.7508336, "lon": 8.9580662, "tags": {"addr:city": "Leck", "addr:housenumber": "8", "addr:postcode": "25917", "addr:street": "Sandweg", "name": "Gesch\u00e4ftseingang"}}, {"type": "way", "id": 96230949, "nodes": [1115444275, 1115444205, 1115444233, 1115444304, 1115444275], "tags": {"building": "yes", "building:levels": "1", "building:material": "brick"}}, {"type": "way", "id": 96230952, "nodes": [1115444234, 1115444206, 1115444356, 1115444341, 1115444234], "tags": {"addr:city": "Leck", "addr:country": "DE", "addr:housenumber": "229", "addr:postcode": "25917", "addr:street": "Alter Kirchenweg", "addr:suburb": "Klintum", "building": "detached", "building:levels": "1", "building:material": "brick", "roof:levels": "1", "roof:orientation": "along", "roof:shape": "pitched"}}, {"type": "way", "id": 96230955, "nodes": [1115444244, 1115444352, 1115444370, 1115444223, 1115444244], "tags": {"addr:city": "Leck", "addr:country": "DE", "addr:housenumber": "4", "addr:postcode": "25917", "addr:street": "L\u00e4rchenweg", "addr:suburb": "Klintum", "building": "detached", "building:levels": "1", "building:material": "brick", "building:roof:orientation": "along", "roof:colour": "black", "roof:levels": "1", "roof:material": "roof_tiles", "roof:shape": "pitched"}}, {"type": "way", "id": 96230962, "nodes": [1115444258, 10201526584, 1115444318, 1115444246, 1115444229, 1115444258], "tags": {"addr:city": "Leck", "addr:housenumber": "6", "addr:postcode": "25917", "addr:street": "Fichtenweg", "addr:suburb": "Klintum", "building": "detached", "building:levels": "1", "building:roof:orientation": "along", "roof:levels": "1", "roof:material": "roof_tiles", "roof:shape": "pitched"}}, {"type": "way", "id": 96230968, "nodes": [1115444326, 1115444231, 1115444250, 1115444324, 1115444326], "tags": {"addr:city": "Leck", "addr:country": "DE", "addr:housenumber": "6", "addr:postcode": "25917", "addr:street": "L\u00e4rchenweg", "addr:suburb": "Klintum", "building": "detached", "building:levels": "1", "building:material": "brick", "building:roof:orientation": "along", "roof:colour": "black", "roof:material": "eternit", "roof:shape": "pitched"}}, {"type": "way", "id": 96230972, "nodes": [1115444227, 1115444354, 1115444276, 1115444181, 1115444210, 1115444227], "tags": {"building": "garage", "building:levels": "1", "building:material": "brick", "roof:shape": "flat"}}, {"type": "way", "id": 96230977, "nodes": [1115444227, 1115444210, 1115444192, 1115444345, 1115444293, 1115444227], "tags": {"addr:city": "Leck", "addr:housenumber": "7", "addr:postcode": "25917", "addr:street": "Fichtenweg", "addr:suburb": "Klintum", "building": "detached", "building:levels": "1", "building:material": "brick", "building:roof:orientation": "along", "roof:colour": "black", "roof:levels": "1", "roof:material": "roof_tiles", "roof:shape": "pitched"}}, {"type": "way", "id": 96579644, "nodes": [1118700305, 1118700300, 1118700272, 1118700327, 1118700305], "tags": {"addr:city": "Leck", "addr:country": "DE", "addr:housenumber": "5", "addr:postcode": "25917", "addr:street": "Fichtenweg", "addr:suburb": "Klintum", "building": "detached", "building:levels": "1", "building:material": "brick", "roof:colour": "black", "roof:levels": "1", "roof:material": "roof_tiles", "roof:shape": "hipped"}}, {"type": "way", "id": 96662016, "nodes": [1119537059, 1119537062, 1119537058, 1119537067, 1119537059], "tags": {"building": "garage", "building:levels": "1", "building:material": "brick", "roof:shape": "flat"}}, {"type": "way", "id": 96662017, "nodes": [1119537064, 1119537065, 1119537057, 1119537061, 1119537064], "tags": {"addr:city": "Leck", "addr:country": "DE", "addr:housenumber": "3", "addr:postcode": "25917", "addr:street": "Fichtenweg", "addr:suburb": "Klintum", "building": "detached", "building:levels": "1", "building:material": "brick", "building:roof:orientation": "along", "roof:colour": "black", "roof:levels": "1", "roof:material": "roof_tiles", "roof:shape": "pitched"}}, {"type": "way", "id": 96662018, "nodes": [1119537063, 1119537059, 1119537056, 1119537068, 1119537063], "tags": {"addr:city": "Leck", "addr:country": "DE", "addr:housenumber": "225", "addr:postcode": "25917", "addr:street": "Alter Kirchenweg", "addr:suburb": "Klintum", "building": "detached", "building:levels": "1", "building:material": "brick", "building:roof:orientation": "along", "roof:material": "roof_tiles", "roof:shape": "pitched"}}, {"type": "way", "id": 96767772, "nodes": [1120525623, 1120525553, 1120525592, 1120525517, 1120525623], "tags": {"addr:city": "Leck", "addr:country": "DE", "addr:housenumber": "1", "addr:postcode": "25917", "addr:street": "Fichtenweg", "addr:suburb": "Klintum", "building": "detached", "building:levels": "1", "building:levels:underground": "1", "building:material": "brick", "building:roof:orientation": "along", "roof:colour": "black", "roof:levels": "1", "roof:material": "roof_tiles", "roof:shape": "pitched"}}, {"type": "way", "id": 96767776, "nodes": [1120525526, 1120525600, 1120525621, 1120525523, 1120525526], "tags": {"addr:city": "Leck", "addr:country": "DE", "addr:housenumber": "2", "addr:postcode": "25917", "addr:street": "L\u00e4rchenweg", "addr:suburb": "Klintum", "building": "detached", "building:levels": "1", "building:material": "brick"}}, {"type": "way", "id": 97571430, "nodes": [1129607022, 1129606891, 1129607002, 1129607024, 1129607022], "tags": {"addr:city": "Leck", "addr:country": "DE", "addr:housenumber": "5", "addr:postcode": "25917", "addr:street": "L\u00e4rchenweg", "addr:suburb": "Klintum", "building": "detached", "building:levels": "1", "building:material": "brick", "building:roof:orientation": "along", "roof:levels": "1", "roof:shape": "pitched"}}, {"type": "way", "id": 97571443, "nodes": [1129606982, 1129606985, 1129606964, 1129606948, 1129606982], "tags": {"addr:city": "Leck", "addr:country": "DE", "addr:housenumber": "3", "addr:postcode": "25917", "addr:street": "L\u00e4rchenweg", "addr:suburb": "Klintum", "building": "detached", "building:levels": "1", "building:material": "brick", "building:roof:orientation": "along", "roof:levels": "1", "roof:material": "roof_tiles", "roof:shape": "pitched"}}, {"type": "way", "id": 97571456, "nodes": [1129606862, 1872936566, 1129606913, 1129606950, 1129607016, 1129606862], "tags": {"addr:city": "Leck", "addr:country": "DE", "addr:housenumber": "227", "addr:postcode": "25917", "addr:street": "Alter Kirchenweg", "addr:suburb": "Klintum", "building": "detached", "building:levels": "1", "building:material": "brick"}}, {"type": "way", "id": 98246431, "nodes": [1136616500, 1136616302, 1136616388, 1136616461, 1136616286, 1136616348, 1136616500], "tags": {"addr:city": "Leck", "addr:country": "DE", "addr:housenumber": "8", "addr:postcode": "25917", "addr:street": "Fichtenweg", "addr:suburb": "Klintum", "building": "detached", "building:levels": "1", "building:material": "brick", "building:roof:orientation": "along", "roof:colour": "black", "roof:levels": "1", "roof:material": "roof_tiles", "roof:shape": "pitched"}}, {"type": "way", "id": 144826194, "nodes": [1583258063, 1583258061, 1583258056, 1583258059, 1583258063], "tags": {"addr:city": "Leck", "addr:country": "DE", "addr:housenumber": "1", "addr:postcode": "25917", "addr:street": "Erlenweg", "addr:suburb": "Klintum", "building": "detached", "building:levels": "1"}}, {"type": "way", "id": 144826195, "nodes": [9847082037, 9847082040, 9847082038, 9847082036, 1583258029, 1583258033, 1583258031, 9847082039, 9847082037], "tags": {"addr:city": "Leck", "addr:country": "DE", "addr:housenumber": "1", "addr:postcode": "25917", "addr:street": "L\u00e4rchenweg", "addr:suburb": "Klintum", "building": "detached", "building:levels": "1", "building:material": "brick", "building:roof": "tile", "building:roof:orientation": "along", "roof:levels": "1", "roof:shape": "pitched"}}, {"type": "way", "id": 144826196, "nodes": [1583258051, 1583258054, 1583258053, 11344991225, 1583258049, 1583258050, 1583258035, 11690443742, 1583258047, 1583258048, 1583258052, 1583258051], "tags": {"addr:city": "Leck", "addr:country": "DE", "addr:housenumber": "232", "addr:postcode": "25917", "addr:street": "Alter Kirchenweg", "addr:suburb": "Klintum", "building": "industrial", "building:levels": "1", "building:material": "brick", "building:roof": "tile", "building:roof:orientation": "along", "roof:shape": "pitched"}}, {"type": "way", "id": 146283450, "nodes": [1595552631, 1595552618, 1595552617, 1595552619, 1595552631], "tags": {"addr:city": "Leck", "addr:country": "DE", "addr:housenumber": "228", "addr:postcode": "25917", "addr:street": "Alter Kirchenweg", "addr:suburb": "Klintum", "building": "detached", "roof:material": "roof_tiles"}}, {"type": "way", "id": 146283453, "nodes": [1595552633, 1595552639, 1595552635, 1595552632, 1595552633], "tags": {"addr:city": "Leck", "addr:country": "DE", "addr:housenumber": "226", "addr:postcode": "25917", "addr:street": "Alter Kirchenweg", "addr:suburb": "Klintum", "building": "detached", "roof:material": "roof_tiles"}}, {"type": "way", "id": 146283454, "nodes": [1595552611, 1595552616, 1595552614, 1595552609, 1595552611], "tags": {"addr:city": "Leck", "addr:country": "DE", "addr:housenumber": "230", "addr:postcode": "25917", "addr:street": "Alter Kirchenweg", "addr:suburb": "Klintum", "building": "detached", "roof:material": "roof_tiles"}}, {"type": "way", "id": 146669036, "nodes": [1599394367, 1599394363, 1599394361, 1599394365, 1599394367], "tags": {"addr:city": "Leck", "addr:country": "DE", "addr:housenumber": "1", "addr:postcode": "25917", "addr:street": "Mittelweg", "addr:suburb": "Klintum", "building": "detached"}}, {"type": "way", "id": 146882777, "nodes": [1601081079, 1601081054, 1601081039, 1601081066, 1601081079], "tags": {"addr:city": "Leck", "addr:country": "DE", "addr:housenumber": "5", "addr:postcode": "25917", "addr:street": "Erlenweg", "addr:suburb": "Klintum", "building": "detached", "building:levels": "1"}}, {"type": "way", "id": 146882783, "nodes": [1601081061, 1601081021, 1601081013, 1601081045, 1601081061], "tags": {"addr:city": "Leck", "addr:country": "DE", "addr:housenumber": "3", "addr:postcode": "25917", "addr:street": "Erlenweg", "addr:suburb": "Klintum", "building": "detached", "building:levels": "1"}}, {"type": "way", "id": 146882784, "nodes": [1601080813, 1601080811, 11344991235, 1601080797, 1601080802, 1601080813], "tags": {"addr:city": "Leck", "addr:country": "DE", "addr:housenumber": "19", "addr:postcode": "25917", "addr:street": "Sandweg", "addr:suburb": "Klintum", "building": "detached", "building:material": "brick"}}, {"type": "way", "id": 146986315, "nodes": [1601791464, 1601791438, 1601791441, 1601791465, 1601791464], "tags": {"addr:city": "Leck", "addr:country": "DE", "addr:housenumber": "15", "addr:postcode": "25917", "addr:street": "Sandweg", "addr:suburb": "Klintum", "building": "detached", "building:material": "brick"}}, {"type": "way", "id": 146986341, "nodes": [1601791446, 1601791447, 11344991241, 1601791468, 1601791467, 11344991245, 1601791446], "tags": {"addr:city": "Leck", "addr:country": "DE", "addr:housenumber": "17", "addr:postcode": "25917", "addr:street": "Sandweg", "addr:suburb": "Klintum", "building": "detached", "building:levels": "2", "building:material": "brick"}}, {"type": "way", "id": 176802968, "nodes": [1129606862, 1872936572, 1872936568, 1872936566, 1129606862], "tags": {"building": "garage", "building:levels": "1", "building:material": "brick", "building:roof": "flat"}}, {"type": "way", "id": 270483358, "nodes": [1118700305, 2754974168, 2754974167, 2754974165, 1118700305], "tags": {"building": "garage", "building:colour": "white", "building:levels": "1", "building:material": "brick", "roof:shape": "flat"}}, {"type": "way", "id": 1223037721, "nodes": [11344991173, 11344991172, 11344991171, 11344991170, 11344991173], "tags": {"building": "shed"}}, {"type": "way", "id": 1223037734, "nodes": [11344991227, 11344991229, 11344991226, 11344991225, 1583258053, 11344991224, 11344991227], "tags": {"building": "shed"}}, {"type": "way", "id": 1223037735, "nodes": [11344991232, 11344991231, 11344991230, 11344991229, 11344991227, 11344991228, 11344991232], "tags": {"building": "shed"}}, {"type": "way", "id": 1223037736, "nodes": [11344991234, 11344991231, 11344991232, 11344991220, 11344991223, 11344991233, 11344991234], "tags": {"building": "garage"}}, {"type": "way", "id": 1223037737, "nodes": [11344991240, 11344991237, 11344991236, 1601080797, 11344991235, 11344991240], "tags": {"building": "shed"}}, {"type": "way", "id": 1223037738, "nodes": [11344991241, 1601791447, 11344991238, 11344991239, 11344991237, 11344991240, 11344991241], "tags": {"building": "garage"}}, {"type": "way", "id": 1223037739, "nodes": [11344991245, 11344991244, 11344991243, 11344991242, 1601791446, 11344991245], "tags": {"building": "garage"}}]}