{"version": 0.6, "generator": "Overpass API 0.7.62.1 084b4234", "osm3s": {"timestamp_osm_base": "2024-06-07T14:15:03Z", "copyright": "The data included in this document is from www.openstreetmap.org. The data is made available under ODbL."}, "elements": [{"type": "node", "id": 6230762343, "lat": 54.7570512, "lon": 8.8774767}, {"type": "node", "id": 6230762344, "lat": 54.7572479, "lon": 8.8776868}, {"type": "node", "id": 6230762345, "lat": 54.7570027, "lon": 8.8784107}, {"type": "node", "id": 6230762346, "lat": 54.7568114, "lon": 8.8781959}, {"type": "node", "id": 6474073907, "lat": 54.7582179, "lon": 8.8773088}, {"type": "node", "id": 6474073908, "lat": 54.7582058, "lon": 8.87735}, {"type": "node", "id": 6474073909, "lat": 54.7582385, "lon": 8.877379}, {"type": "node", "id": 6474073910, "lat": 54.7582135, "lon": 8.8774636}, {"type": "node", "id": 6474073911, "lat": 54.7580935, "lon": 8.8773571}, {"type": "node", "id": 6474073912, "lat": 54.7581307, "lon": 8.8772314}, {"type": "node", "id": 6474073913, "lat": 54.7583297, "lon": 8.8769197}, {"type": "node", "id": 6474073914, "lat": 54.7582706, "lon": 8.877108}, {"type": "node", "id": 6474073915, "lat": 54.7581888, "lon": 8.8770308}, {"type": "node", "id": 6474073916, "lat": 54.758248, "lon": 8.8768425}, {"type": "node", "id": 6474073917, "lat": 54.7581638, "lon": 8.8777269}, {"type": "node", "id": 6474073918, "lat": 54.7580177, "lon": 8.8775923}, {"type": "node", "id": 6474073919, "lat": 54.7579521, "lon": 8.8778059}, {"type": "node", "id": 6474073920, "lat": 54.7580231, "lon": 8.8778714}, {"type": "node", "id": 6474073921, "lat": 54.7580571, "lon": 8.8777606}, {"type": "node", "id": 6474073922, "lat": 54.7581323, "lon": 8.8778298}, {"type": "node", "id": 8065368308, "lat": 54.7576028, "lon": 8.8757323}, {"type": "node", "id": 8065368309, "lat": 54.7577287, "lon": 8.8758452}, {"type": "node", "id": 8065368310, "lat": 54.7577534, "lon": 8.875779}, {"type": "node", "id": 8065368311, "lat": 54.7577129, "lon": 8.8757128}, {"type": "node", "id": 8065368312, "lat": 54.7577781, "lon": 8.8755025}, {"type": "node", "id": 8065368313, "lat": 54.7579354, "lon": 8.8756116}, {"type": "node", "id": 8065368314, "lat": 54.757841, "lon": 8.8758763}, {"type": "node", "id": 8065368315, "lat": 54.7577444, "lon": 8.8761684}, {"type": "node", "id": 8065368316, "lat": 54.7575197, "lon": 8.8759698}, {"type": "node", "id": 8065368317, "lat": 54.7571984, "lon": 8.8761957}, {"type": "node", "id": 8065368318, "lat": 54.7571242, "lon": 8.8764254}, {"type": "node", "id": 8065368319, "lat": 54.7569692, "lon": 8.8762229}, {"type": "node", "id": 8065368320, "lat": 54.7570433, "lon": 8.8760204}, {"type": "node", "id": 8065368321, "lat": 54.7571579, "lon": 8.8757089}, {"type": "node", "id": 8065368322, "lat": 54.7573602, "lon": 8.8759231}, {"type": "node", "id": 8065368323, "lat": 54.7572725, "lon": 8.8761645}, {"type": "node", "id": 8065368324, "lat": 54.7570658, "lon": 8.8759542}, {"type": "node", "id": 8065368325, "lat": 54.7575332, "lon": 8.876071}, {"type": "node", "id": 8065368326, "lat": 54.7577309, "lon": 8.876258}, {"type": "node", "id": 8065368327, "lat": 54.7576725, "lon": 8.8764449}, {"type": "node", "id": 8065368328, "lat": 54.757468, "lon": 8.8762657}, {"type": "node", "id": 8065368329, "lat": 54.7574236, "lon": 8.8764071}, {"type": "node", "id": 8065368330, "lat": 54.7576138, "lon": 8.8765972}, {"type": "node", "id": 8065368331, "lat": 54.7575247, "lon": 8.8768651}, {"type": "node", "id": 8065368332, "lat": 54.7573345, "lon": 8.876675}, {"type": "way", "id": 665640387, "nodes": [6230762343, 6230762344, 6230762345, 6230762346, 6230762343], "tags": {"building": "commercial", "craft": "agricultural_engines"}}, {"type": "way", "id": 690070071, "nodes": [6474073912, 6474073911, 6474073910, 6474073909, 6474073908, 6474073907, 6474073912], "tags": {"addr:housenumber": "2", "addr:street": "\u00dc\u00fcle Brow\u00e4i", "building": "detached"}}, {"type": "way", "id": 690070074, "nodes": [6474073916, 6474073915, 6474073914, 6474073913, 6474073916], "tags": {"addr:housenumber": "1", "addr:street": "\u00dc\u00fcle Brow\u00e4i", "building": "detached"}}, {"type": "way", "id": 690070077, "nodes": [6474073922, 6474073921, 6474073920, 6474073919, 6474073918, 6474073917, 6474073922], "tags": {"addr:housenumber": "3", "addr:street": "\u00dc\u00fcle Brow\u00e4i", "building": "detached"}}, {"type": "way", "id": 865301529, "nodes": [8065368308, 8065368309, 8065368310, 8065368311, 8065368312, 8065368313, 8065368314, 8065368315, 8065368316, 8065368308], "tags": {"addr:housenumber": "8", "addr:street": "Claas-Ring", "building": "commercial", "craft": "builder", "name": "Werth-Bau", "website": "http://werth-bau.de/"}}, {"type": "way", "id": 865301530, "nodes": [8065368317, 8065368318, 8065368319, 8065368320, 8065368317], "tags": {"addr:housenumber": "2", "addr:street": "Claas-Ring", "building": "commercial", "craft": "signmaker", "name": "Pedres"}}, {"type": "way", "id": 865301531, "nodes": [8065368321, 8065368322, 8065368323, 8065368324, 8065368321], "tags": {"addr:housenumber": "4", "addr:street": "Claas-Ring", "building": "commercial"}}, {"type": "way", "id": 865301532, "nodes": [8065368325, 8065368326, 8065368327, 8065368328, 8065368325], "tags": {"addr:housenumber": "10", "addr:street": "Claas-Ring", "building": "commercial"}}, {"type": "way", "id": 865301533, "nodes": [8065368329, 8065368330, 8065368331, 8065368332, 8065368329], "tags": {"addr:city": "Risum-Lindholm", "addr:housenumber": "12", "addr:postcode": "25920", "addr:street": "Claas-Ring", "building": "commercial", "craft": "electrician", "name": "Hoppach Automatik", "operator": "Ulf Hoppach"}}]}